[
  {
    "OBJECT_NAME": "STARLINK-34182",
    "OBJECT_ID": "25101V",
    "EPOCH": "2025-11-11T00:36:00.815616",
    "MEAN_MOTION": 15.27615466,
    "ECCENTRICITY": 0.0001753,
    "INCLINATION": 43.0069,
    "RA_OF_ASC_NODE": 304.9459,
    "ARG_OF_PERICENTER": 268.6993,
    "MEAN_ANOMALY": 91.3658,
    "EPHEMERIS_TYPE": 0,
    "CLASSIFICATION_TYPE": "U",
    "NORAD_CAT_ID": 64013,
    "ELEMENT_SET_NO": 999,
    "REV_AT_EPOCH": 2894,
    "BSTAR": 0.0014468,
    "MEAN_MOTION_DOT": 0.0003981,
    "MEAN_MOTION_DDOT": 0.0,
    "TLE_LINE1": "1 64013U 25101V   25315.02500944  .00039810  00000+0  14468-2 0  9998",
    "TLE_LINE2": "2 64013  43.0069 304.9459 0001753 268.6993  91.3658 15.27615466 28949",
    "COMMENT": "Grouped by shell and plane from TLE"
  },
  {
    "OBJECT_NAME": "STARLINK-34192",
    "OBJECT_ID": "25101W",
    "EPOCH": "2025-11-11T00:44:33.932256",
    "MEAN_MOTION": 15.27585723,
    "ECCENTRICITY": 0.0001232,
    "INCLINATION": 43.0047,
    "RA_OF_ASC_NODE": 308.4498,
    "ARG_OF_PERICENTER": 263.281,
    "MEAN_ANOMALY": 96.7901,
    "EPHEMERIS_TYPE": 0,
    "CLASSIFICATION_TYPE": "U",
    "NORAD_CAT_ID": 64014,
    "ELEMENT_SET_NO": 999,
    "REV_AT_EPOCH": 2890,
    "BSTAR": 0.001443,
    "MEAN_MOTION_DOT": 0.00039665,
    "MEAN_MOTION_DDOT": 0.0,
    "TLE_LINE1": "1 64014U 25101W   25315.03094829  .00039665  00000+0  14430-2 0  9997",
    "TLE_LINE2": "2 64014  43.0047 308.4498 0001232 263.2810  96.7901 15.27585723 28907",
    "COMMENT": "Grouped by shell and plane from TLE"
  },
  {
    "OBJECT_NAME": "STARLINK-34093",
    "OBJECT_ID": "25101X",
    "EPOCH": "2025-11-11T06:00:05.740416",
    "MEAN_MOTION": 15.27679736,
    "ECCENTRICITY": 0.0001562,
    "INCLINATION": 43.0041,
    "RA_OF_ASC_NODE": 306.6557,
    "ARG_OF_PERICENTER": 264.1411,
    "MEAN_ANOMALY": 95.9263,
    "EPHEMERIS_TYPE": 0,
    "CLASSIFICATION_TYPE": "U",
    "NORAD_CAT_ID": 64015,
    "ELEMENT_SET_NO": 999,
    "REV_AT_EPOCH": 2894,
    "BSTAR": 0.0023448,
    "MEAN_MOTION_DOT": 0.0006503,
    "MEAN_MOTION_DDOT": 0.0,
    "TLE_LINE1": "1 64015U 25101X   25315.25006644  .00065030  00000+0  23448-2 0  9994",
    "TLE_LINE2": "2 64015  43.0041 306.6557 0001562 264.1411  95.9263 15.27679736 28945",
    "COMMENT": "Grouped by shell and plane from TLE"
  },
  {
    "OBJECT_NAME": "STARLINK-34016",
    "OBJECT_ID": "25101Y",
    "EPOCH": "2025-11-11T05:52:43.396608",
    "MEAN_MOTION": 15.27611871,
    "ECCENTRICITY": 0.0001314,
    "INCLINATION": 43.0034,
    "RA_OF_ASC_NODE": 306.6148,
    "ARG_OF_PERICENTER": 261.4643,
    "MEAN_ANOMALY": 98.6059,
    "EPHEMERIS_TYPE": 0,
    "CLASSIFICATION_TYPE": "U",
    "NORAD_CAT_ID": 64016,
    "ELEMENT_SET_NO": 999,
    "REV_AT_EPOCH": 2894,
    "BSTAR": 0.0016477,
    "MEAN_MOTION_DOT": 0.00045402,
    "MEAN_MOTION_DDOT": 0.0,
    "TLE_LINE1": "1 64016U 25101Y   25315.24494672  .00045402  00000+0  16477-2 0  9991",
    "TLE_LINE2": "2 64016  43.0034 306.6148 0001314 261.4643  98.6059 15.27611871 28945",
    "COMMENT": "Grouped by shell and plane from TLE"
  },
  {
    "OBJECT_NAME": "STARLINK-34161",
    "OBJECT_ID": "25101Z",
    "EPOCH": "2025-11-11T06:05:40.601760",
    "MEAN_MOTION": 15.27619207,
    "ECCENTRICITY": 0.0001337,
    "INCLINATION": 43.0037,
    "RA_OF_ASC_NODE": 306.6832,
    "ARG_OF_PERICENTER": 267.6422,
    "MEAN_ANOMALY": 92.4277,
    "EPHEMERIS_TYPE": 0,
    "CLASSIFICATION_TYPE": "U",
    "NORAD_CAT_ID": 64017,
    "ELEMENT_SET_NO": 999,
    "REV_AT_EPOCH": 2894,
    "BSTAR": 0.0018984000000000002,
    "MEAN_MOTION_DOT": 0.00052412,
    "MEAN_MOTION_DDOT": 0.0,
    "TLE_LINE1": "1 64017U 25101Z   25315.25394215  .00052412  00000+0  18984-2 0  9999",
    "TLE_LINE2": "2 64017  43.0037 306.6832 0001337 267.6422  92.4277 15.27619207 28942",
    "COMMENT": "Grouped by shell and plane from TLE"
  },
  {
    "OBJECT_NAME": "STARLINK-34162",
    "OBJECT_ID": "25101AA",
    "EPOCH": "2025-11-11T06:24:12.046176",
    "MEAN_MOTION": 15.27562209,
    "ECCENTRICITY": 0.0001486,
    "INCLINATION": 43.0009,
    "RA_OF_ASC_NODE": 306.7788,
    "ARG_OF_PERICENTER": 251.6921,
    "MEAN_ANOMALY": 108.3769,
    "EPHEMERIS_TYPE": 0,
    "CLASSIFICATION_TYPE": "U",
    "NORAD_CAT_ID": 64018,
    "ELEMENT_SET_NO": 999,
    "REV_AT_EPOCH": 2894,
    "BSTAR": 0.0010027,
    "MEAN_MOTION_DOT": 0.00027418,
    "MEAN_MOTION_DDOT": 0.0,
    "TLE_LINE1": "1 64018U 25101AA  25315.26680609  .00027418  00000+0  10027-2 0  9994",
    "TLE_LINE2": "2 64018  43.0009 306.7788 0001486 251.6921 108.3769 15.27562209 28947",
    "COMMENT": "Grouped by shell and plane from TLE"
  },
  {
    "OBJECT_NAME": "STARLINK-34155",
    "OBJECT_ID": "25101AB",
    "EPOCH": "2025-11-11T06:35:17.602656",
    "MEAN_MOTION": 15.27560142,
    "ECCENTRICITY": 6.01e-05,
    "INCLINATION": 43.0021,
    "RA_OF_ASC_NODE": 306.8359,
    "ARG_OF_PERICENTER": 242.3895,
    "MEAN_ANOMALY": 117.6896,
    "EPHEMERIS_TYPE": 0,
    "CLASSIFICATION_TYPE": "U",
    "NORAD_CAT_ID": 64019,
    "ELEMENT_SET_NO": 999,
    "REV_AT_EPOCH": 2894,
    "BSTAR": 0.00020266999999999998,
    "MEAN_MOTION_DOT": 5.316e-05,
    "MEAN_MOTION_DDOT": 0.0,
    "TLE_LINE1": "1 64019U 25101AB  25315.27450929  .00005316  00000+0  20267-3 0  9997",
    "TLE_LINE2": "2 64019  43.0021 306.8359 0000601 242.3895 117.6896 15.27560142 28940",
    "COMMENT": "Grouped by shell and plane from TLE"
  },
  {
    "OBJECT_NAME": "STARLINK-34141",
    "OBJECT_ID": "25101AC",
    "EPOCH": "2025-11-11T06:29:43.753920",
    "MEAN_MOTION": 15.27618114,
    "ECCENTRICITY": 0.0001445,
    "INCLINATION": 43.0019,
    "RA_OF_ASC_NODE": 306.8056,
    "ARG_OF_PERICENTER": 272.5688,
    "MEAN_ANOMALY": 87.4998,
    "EPHEMERIS_TYPE": 0,
    "CLASSIFICATION_TYPE": "U",
    "NORAD_CAT_ID": 64020,
    "ELEMENT_SET_NO": 999,
    "REV_AT_EPOCH": 2894,
    "BSTAR": 0.0014981,
    "MEAN_MOTION_DOT": 0.00041241,
    "MEAN_MOTION_DDOT": 0.0,
    "TLE_LINE1": "1 64020U 25101AC  25315.27064530  .00041241  00000+0  14981-2 0  9990",
    "TLE_LINE2": "2 64020  43.0019 306.8056 0001445 272.5688  87.4998 15.27618114 28945",
    "COMMENT": "Grouped by shell and plane from TLE"
  },
  {
    "OBJECT_NAME": "STARLINK-34062",
    "OBJECT_ID": "25101AD",
    "EPOCH": "2025-11-11T05:58:16.322592",
    "MEAN_MOTION": 15.27629811,
    "ECCENTRICITY": 0.0001531,
    "INCLINATION": 43.0029,
    "RA_OF_ASC_NODE": 306.6424,
    "ARG_OF_PERICENTER": 264.4923,
    "MEAN_ANOMALY": 95.5754,
    "EPHEMERIS_TYPE": 0,
    "CLASSIFICATION_TYPE": "U",
    "NORAD_CAT_ID": 64021,
    "ELEMENT_SET_NO": 999,
    "REV_AT_EPOCH": 2894,
    "BSTAR": 0.0017449000000000002,
    "MEAN_MOTION_DOT": 0.00048142,
    "MEAN_MOTION_DDOT": 0.0,
    "TLE_LINE1": "1 64021U 25101AD  25315.24880003  .00048142  00000+0  17449-2 0  9998",
    "TLE_LINE2": "2 64021  43.0029 306.6424 0001531 264.4923  95.5754 15.27629811 28948",
    "COMMENT": "Grouped by shell and plane from TLE"
  },
  {
    "OBJECT_NAME": "STARLINK-34329",
    "OBJECT_ID": "25120A",
    "EPOCH": "2025-11-11T05:47:42.150048",
    "MEAN_MOTION": 15.30203752,
    "ECCENTRICITY": 0.0001183,
    "INCLINATION": 53.1606,
    "RA_OF_ASC_NODE": 306.7059,
    "ARG_OF_PERICENTER": 84.4311,
    "MEAN_ANOMALY": 275.6825,
    "EPHEMERIS_TYPE": 0,
    "CLASSIFICATION_TYPE": "U",
    "NORAD_CAT_ID": 64256,
    "ELEMENT_SET_NO": 999,
    "REV_AT_EPOCH": 2579,
    "BSTAR": 0.0011923,
    "MEAN_MOTION_DOT": 0.00035126,
    "MEAN_MOTION_DDOT": 0.0,
    "TLE_LINE1": "1 64256U 25120A   25315.24146007  .00035126  00000+0  11923-2 0  9997",
    "TLE_LINE2": "2 64256  53.1606 306.7059 0001183  84.4311 275.6825 15.30203752 25796",
    "COMMENT": "Grouped by shell and plane from TLE"
  },
  {
    "OBJECT_NAME": "STARLINK-34352",
    "OBJECT_ID": "25120B",
    "EPOCH": "2025-11-11T06:16:34.205664",
    "MEAN_MOTION": 15.30220989,
    "ECCENTRICITY": 0.0001059,
    "INCLINATION": 53.1582,
    "RA_OF_ASC_NODE": 306.8267,
    "ARG_OF_PERICENTER": 68.0629,
    "MEAN_ANOMALY": 292.0484,
    "EPHEMERIS_TYPE": 0,
    "CLASSIFICATION_TYPE": "U",
    "NORAD_CAT_ID": 64257,
    "ELEMENT_SET_NO": 999,
    "REV_AT_EPOCH": 2573,
    "BSTAR": 0.0010576000000000001,
    "MEAN_MOTION_DOT": 0.00031114,
    "MEAN_MOTION_DDOT": 0.0,
    "TLE_LINE1": "1 64257U 25120B   25315.26150701  .00031114  00000+0  10576-2 0  9992",
    "TLE_LINE2": "2 64257  53.1582 306.8267 0001059  68.0629 292.0484 15.30220989 25733",
    "COMMENT": "Grouped by shell and plane from TLE"
  },
  {
    "OBJECT_NAME": "STARLINK-34308",
    "OBJECT_ID": "25120C",
    "EPOCH": "2025-11-11T05:58:21.587808",
    "MEAN_MOTION": 15.30189028,
    "ECCENTRICITY": 0.0001504,
    "INCLINATION": 53.1609,
    "RA_OF_ASC_NODE": 306.7503,
    "ARG_OF_PERICENTER": 80.1003,
    "MEAN_ANOMALY": 280.0168,
    "EPHEMERIS_TYPE": 0,
    "CLASSIFICATION_TYPE": "U",
    "NORAD_CAT_ID": 64258,
    "ELEMENT_SET_NO": 999,
    "REV_AT_EPOCH": 2573,
    "BSTAR": 0.00077078,
    "MEAN_MOTION_DOT": 0.00022531,
    "MEAN_MOTION_DDOT": 0.0,
    "TLE_LINE1": "1 64258U 25120C   25315.24886097  .00022531  00000+0  77078-3 0  9999",
    "TLE_LINE2": "2 64258  53.1609 306.7503 0001504  80.1003 280.0168 15.30189028 25736",
    "COMMENT": "Grouped by shell and plane from TLE"
  },
  {
    "OBJECT_NAME": "STARLINK-34306",
    "OBJECT_ID": "25120D",
    "EPOCH": "2025-11-11T07:11:07.113696",
    "MEAN_MOTION": 15.30200915,
    "ECCENTRICITY": 0.0001521,
    "INCLINATION": 53.1608,
    "RA_OF_ASC_NODE": 306.3521,
    "ARG_OF_PERICENTER": 77.3618,
    "MEAN_ANOMALY": 282.7553,
    "EPHEMERIS_TYPE": 0,
    "CLASSIFICATION_TYPE": "U",
    "NORAD_CAT_ID": 64259,
    "ELEMENT_SET_NO": 999,
    "REV_AT_EPOCH": 2574,
    "BSTAR": 0.0014804999999999998,
    "MEAN_MOTION_DOT": 0.00043748,
    "MEAN_MOTION_DDOT": 0.0,
    "TLE_LINE1": "1 64259U 25120D   25315.29938789  .00043748  00000+0  14805-2 0  9992",
    "TLE_LINE2": "2 64259  53.1608 306.3521 0001521  77.3618 282.7553 15.30200915 25748",
    "COMMENT": "Grouped by shell and plane from TLE"
  }
]